start=new Date('2022-12-15T00:00:00.000Z').valueOf();
sats=[{"MEAN_MOTION_DDOT":"0.0000000000000","PERIOD":"96.107","NORAD_CAT_ID":"49168","OBJECT_TYPE":"PAYLOAD","CENTER_NAME":"EARTH","RA_OF_ASC_NODE":"11.9480","SITE":"AFWTR","OBJECT_ID":"2021-082AQ","LAUNCH_DATE":"2021-09-14","MEAN_ANOMALY":"90.8634","OBJECT_NAME":"STARLINK-3101","ARG_OF_PERICENTER":"269.2245","MEAN_MOTION":"14.98328791","BSTAR":"-0.00000226560000","REV_AT_EPOCH":"7078","PERIAPSIS":"570.366","INCLINATION":"70.0025","COUNTRY_CODE":"US","DECAY_DATE":null,"SEMIMAJOR_AXIS":"6950.197","GP_ID":"220407360","TLE_LINE2":"2 49168  70.0025  11.9480 0002439 269.2245  90.8634 14.98328791 70789","FILE":"3699647","APOAPSIS":"573.757","MEAN_ELEMENT_THEORY":"SGP4","TLE_LINE1":"1 49168U 21082AQ  22348.77730232 -.00000120  00000-0 -22656-5 0  9992","ELEMENT_SET_NO":"999","TIME_SYSTEM":"UTC","CLASSIFICATION_TYPE":"U","REF_FRAME":"TEME","RCS_SIZE":"LARGE","MEAN_MOTION_DOT":"-0.00000120","ECCENTRICITY":"0.00024390","EPOCH":"2022-12-14T18:39:18.920448","EPHEMERIS_TYPE":"0"},{"MEAN_ELEMENT_THEORY":"SGP4","APOAPSIS":"574.160","TLE_LINE1":"1 49169U 21082AR  22348.78205949  .00003067  00000-0  26467-3 0  9999","FILE":"3699647","TLE_LINE2":"2 49169  70.0012  11.9417 0003070 267.3020  92.7787 14.98340297 69589","ELEMENT_SET_NO":"999","MEAN_MOTION_DOT":"0.00003067","RCS_SIZE":"LARGE","ECCENTRICITY":"0.00030700","TIME_SYSTEM":"UTC","REF_FRAME":"TEME","CLASSIFICATION_TYPE":"U","EPHEMERIS_TYPE":"0","EPOCH":"2022-12-14T18:46:09.939936","NORAD_CAT_ID":"49169","PERIOD":"96.106","MEAN_MOTION_DDOT":"0.0000000000000","OBJECT_TYPE":"PAYLOAD","SITE":"AFWTR","CENTER_NAME":"EARTH","RA_OF_ASC_NODE":"11.9417","BSTAR":"0.00026467000000","ARG_OF_PERICENTER":"267.3020","MEAN_MOTION":"14.98340297","REV_AT_EPOCH":"6958","LAUNCH_DATE":"2021-09-14","OBJECT_ID":"2021-082AR","MEAN_ANOMALY":"92.7787","OBJECT_NAME":"STARLINK-3046","SEMIMAJOR_AXIS":"6950.161","DECAY_DATE":null,"COUNTRY_CODE":"US","GP_ID":"220408107","INCLINATION":"70.0012","PERIAPSIS":"569.892"},{"NORAD_CAT_ID":"49170","PERIOD":"96.107","MEAN_MOTION_DDOT":"0.0000000000000","SITE":"AFWTR","CENTER_NAME":"EARTH","RA_OF_ASC_NODE":"31.7540","OBJECT_TYPE":"PAYLOAD","REV_AT_EPOCH":"6910","BSTAR":"0.00012739000000","MEAN_MOTION":"14.98333218","ARG_OF_PERICENTER":"261.7139","OBJECT_NAME":"STARLINK-3074","MEAN_ANOMALY":"98.3661","LAUNCH_DATE":"2021-09-14","OBJECT_ID":"2021-082AS","GP_ID":"220408357","SEMIMAJOR_AXIS":"6950.183","COUNTRY_CODE":"US","DECAY_DATE":null,"INCLINATION":"70.0008","PERIAPSIS":"569.845","TLE_LINE1":"1 49170U 21082AS  22348.85498386  .00001427  00000-0  12739-3 0  9993","MEAN_ELEMENT_THEORY":"SGP4","APOAPSIS":"574.250","FILE":"3699647","TLE_LINE2":"2 49170  70.0008  31.7540 0003169 261.7139  98.3661 14.98333218 69107","ELEMENT_SET_NO":"999","ECCENTRICITY":"0.00031690","MEAN_MOTION_DOT":"0.00001427","RCS_SIZE":"LARGE","REF_FRAME":"TEME","CLASSIFICATION_TYPE":"U","TIME_SYSTEM":"UTC","EPHEMERIS_TYPE":"0","EPOCH":"2022-12-14T20:31:10.605504"},{"ELEMENT_SET_NO":"999","FILE":"3699647","TLE_LINE2":"2 49171  70.0011  31.6974 0002370 260.2230  99.8662 14.98335256 70261","TLE_LINE1":"1 49171U 21082AT  22348.87406531 -.00000495  00000-0 -33736-4 0  9994","MEAN_ELEMENT_THEORY":"SGP4","APOAPSIS":"573.689","EPOCH":"2022-12-14T20:58:39.242784","EPHEMERIS_TYPE":"0","CLASSIFICATION_TYPE":"U","REF_FRAME":"TEME","TIME_SYSTEM":"UTC","ECCENTRICITY":"0.00023700","RCS_SIZE":"LARGE","MEAN_MOTION_DOT":"-0.00000495","RA_OF_ASC_NODE":"31.6974","CENTER_NAME":"EARTH","SITE":"AFWTR","OBJECT_TYPE":"PAYLOAD","PERIOD":"96.107","MEAN_MOTION_DDOT":"0.0000000000000","NORAD_CAT_ID":"49171","PERIAPSIS":"570.394","INCLINATION":"70.0011","GP_ID":"220409604","COUNTRY_CODE":"US","DECAY_DATE":null,"SEMIMAJOR_AXIS":"6950.177","MEAN_ANOMALY":"99.8662","OBJECT_NAME":"STARLINK-3107","LAUNCH_DATE":"2021-09-14","OBJECT_ID":"2021-082AT","REV_AT_EPOCH":"7026","MEAN_MOTION":"14.98335256","ARG_OF_PERICENTER":"260.2230","BSTAR":"-0.00003373600000"},{"EPOCH":"2022-12-14T19:38:08.707776","EPHEMERIS_TYPE":"0","ECCENTRICITY":"0.00030910","RCS_SIZE":"LARGE","MEAN_MOTION_DOT":"0.00000215","CLASSIFICATION_TYPE":"U","REF_FRAME":"TEME","TIME_SYSTEM":"UTC","ELEMENT_SET_NO":"999","TLE_LINE1":"1 49172U 21082AU  22348.81815634  .00000215  00000-0  25822-4 0  9992","APOAPSIS":"574.161","MEAN_ELEMENT_THEORY":"SGP4","FILE":"3699647","TLE_LINE2":"2 49172  69.9999  11.8481 0003091 280.0880  79.9930 14.98344621 69585","GP_ID":"220409114","COUNTRY_CODE":"US","DECAY_DATE":null,"SEMIMAJOR_AXIS":"6950.148","INCLINATION":"69.9999","PERIAPSIS":"569.864","REV_AT_EPOCH":"6958","ARG_OF_PERICENTER":"280.0880","MEAN_MOTION":"14.98344621","BSTAR":"0.00002582200000","MEAN_ANOMALY":"79.9930","OBJECT_NAME":"STARLINK-3091","OBJECT_ID":"2021-082AU","LAUNCH_DATE":"2021-09-14","CENTER_NAME":"EARTH","RA_OF_ASC_NODE":"11.8481","SITE":"AFWTR","OBJECT_TYPE":"PAYLOAD","MEAN_MOTION_DDOT":"0.0000000000000","PERIOD":"96.106","NORAD_CAT_ID":"49172"},{"INCLINATION":"70.0023","PERIAPSIS":"569.955","DECAY_DATE":null,"COUNTRY_CODE":"US","SEMIMAJOR_AXIS":"6950.240","GP_ID":"220408608","LAUNCH_DATE":"2021-09-14","OBJECT_ID":"2021-082AV","OBJECT_NAME":"STARLINK-3045","MEAN_ANOMALY":"80.0591","MEAN_MOTION":"14.98314733","ARG_OF_PERICENTER":"280.0218","BSTAR":"-0.00023635000000","REV_AT_EPOCH":"6958","OBJECT_TYPE":"PAYLOAD","RA_OF_ASC_NODE":"11.9610","CENTER_NAME":"EARTH","SITE":"AFWTR","MEAN_MOTION_DDOT":"0.0000000000000","PERIOD":"96.108","NORAD_CAT_ID":"49173","EPOCH":"2022-12-14T18:32:27.045600","EPHEMERIS_TYPE":"0","TIME_SYSTEM":"UTC","CLASSIFICATION_TYPE":"U","REF_FRAME":"TEME","RCS_SIZE":"LARGE","MEAN_MOTION_DOT":"-0.00002911","ECCENTRICITY":"0.00030930","ELEMENT_SET_NO":"999","TLE_LINE2":"2 49173  70.0023  11.9610 0003093 280.0218  80.0591 14.98314733 69586","FILE":"3699647","MEAN_ELEMENT_THEORY":"SGP4","APOAPSIS":"574.255","TLE_LINE1":"1 49173U 21082AV  22348.77253525 -.00002911  00000-0 -23635-3 0  9999"},{"REV_AT_EPOCH":"7075","ARG_OF_PERICENTER":"289.3183","MEAN_MOTION":"14.98281099","BSTAR":"0.00141830000000","OBJECT_NAME":"STARLINK-3047","MEAN_ANOMALY":"70.7465","LAUNCH_DATE":"2021-09-14","OBJECT_ID":"2021-082AW","GP_ID":"220408858","COUNTRY_CODE":"US","DECAY_DATE":null,"SEMIMAJOR_AXIS":"6950.344","INCLINATION":"70.0010","PERIAPSIS":"568.926","PERIOD":"96.110","MEAN_MOTION_DDOT":"0.0000000000000","NORAD_CAT_ID":"49174","RA_OF_ASC_NODE":"12.0840","CENTER_NAME":"EARTH","SITE":"AFWTR","OBJECT_TYPE":"PAYLOAD","ECCENTRICITY":"0.00047230","RCS_SIZE":"LARGE","MEAN_MOTION_DOT":"0.00016851","CLASSIFICATION_TYPE":"U","REF_FRAME":"TEME","TIME_SYSTEM":"UTC","EPOCH":"2022-12-14T19:27:46.588032","EPHEMERIS_TYPE":"0","TLE_LINE1":"1 49174U 21082AW  22348.81095588  .00016851  00000-0  14183-2 0  9991","MEAN_ELEMENT_THEORY":"SGP4","APOAPSIS":"575.492","FILE":"3699647","TLE_LINE2":"2 49174  70.0010  12.0840 0004723 289.3183  70.7465 14.98281099 70759","ELEMENT_SET_NO":"999"},{"FILE":"3699647","TLE_LINE2":"2 49175  70.0018  11.9003 0003005 267.7328  92.3487 14.98343141 69580","MEAN_ELEMENT_THEORY":"SGP4","APOAPSIS":"574.106","TLE_LINE1":"1 49175U 21082AX  22348.79909283  .00001592  00000-0  14112-3 0  9994","ELEMENT_SET_NO":"999","TIME_SYSTEM":"UTC","CLASSIFICATION_TYPE":"U","REF_FRAME":"TEME","RCS_SIZE":"LARGE","MEAN_MOTION_DOT":"0.00001592","ECCENTRICITY":"0.00030050","EPOCH":"2022-12-14T19:10:41.620512","EPHEMERIS_TYPE":"0","PERIOD":"96.106","MEAN_MOTION_DDOT":"0.0000000000000","NORAD_CAT_ID":"49175","OBJECT_TYPE":"PAYLOAD","CENTER_NAME":"EARTH","RA_OF_ASC_NODE":"11.9003","SITE":"AFWTR","OBJECT_ID":"2021-082AX","LAUNCH_DATE":"2021-09-14","MEAN_ANOMALY":"92.3487","OBJECT_NAME":"STARLINK-3087","MEAN_MOTION":"14.98343141","ARG_OF_PERICENTER":"267.7328","BSTAR":"0.00014112000000","REV_AT_EPOCH":"6958","INCLINATION":"70.0018","PERIAPSIS":"569.929","DECAY_DATE":null,"COUNTRY_CODE":"US","SEMIMAJOR_AXIS":"6950.152","GP_ID":"220409104"},{"NORAD_CAT_ID":"49176","MEAN_MOTION_DDOT":"0.0000000000000","PERIOD":"96.108","SITE":"AFWTR","CENTER_NAME":"EARTH","RA_OF_ASC_NODE":"351.4253","OBJECT_TYPE":"PAYLOAD","OBJECT_NAME":"STARLINK-3069","MEAN_ANOMALY":"71.1858","LAUNCH_DATE":"2021-09-14","OBJECT_ID":"2021-082AY","REV_AT_EPOCH":"7010","BSTAR":"0.00000277780000","ARG_OF_PERICENTER":"288.8931","MEAN_MOTION":"14.98322010","PERIAPSIS":"569.713","INCLINATION":"70.0014","GP_ID":"220414802","SEMIMAJOR_AXIS":"6950.218","COUNTRY_CODE":"US","DECAY_DATE":null,"TLE_LINE2":"2 49176  70.0014 351.4253 0003410 288.8931  71.1858 14.98322010 70109","FILE":"3699719","TLE_LINE1":"1 49176U 21082AY  22348.98844154 -.00000060  00000-0  27778-5 0  9995","APOAPSIS":"574.453","MEAN_ELEMENT_THEORY":"SGP4","ELEMENT_SET_NO":"999","REF_FRAME":"TEME","CLASSIFICATION_TYPE":"U","TIME_SYSTEM":"UTC","ECCENTRICITY":"0.00034100","MEAN_MOTION_DOT":"-0.00000060","RCS_SIZE":"LARGE","EPHEMERIS_TYPE":"0","EPOCH":"2022-12-14T23:43:21.349056"},{"INCLINATION":"70.0006","PERIAPSIS":"569.796","GP_ID":"220408108","SEMIMAJOR_AXIS":"6950.180","DECAY_DATE":null,"COUNTRY_CODE":"US","MEAN_ANOMALY":"82.9789","OBJECT_NAME":"STARLINK-3103","OBJECT_ID":"2021-082AZ","LAUNCH_DATE":"2021-09-14","REV_AT_EPOCH":"7126","BSTAR":"0.00022789000000","MEAN_MOTION":"14.98334081","ARG_OF_PERICENTER":"277.1002","SITE":"AFWTR","CENTER_NAME":"EARTH","RA_OF_ASC_NODE":"352.0529","OBJECT_TYPE":"PAYLOAD","NORAD_CAT_ID":"49177","MEAN_MOTION_DDOT":"0.0000000000000","PERIOD":"96.107","EPHEMERIS_TYPE":"0","EPOCH":"2022-12-14T17:46:16.824000","REF_FRAME":"TEME","CLASSIFICATION_TYPE":"U","TIME_SYSTEM":"UTC","ECCENTRICITY":"0.00032360","MEAN_MOTION_DOT":"0.00002627","RCS_SIZE":"LARGE","ELEMENT_SET_NO":"999","FILE":"3699647","TLE_LINE2":"2 49177  70.0006 352.0529 0003236 277.1002  82.9789 14.98334081 71262","TLE_LINE1":"1 49177U 21082AZ  22348.74047250  .00002627  00000-0  22789-3 0  9997","MEAN_ELEMENT_THEORY":"SGP4","APOAPSIS":"574.294"}];
